CORVUS BC1              
1 42847U 17042Y   18201.78571839  .00000038  00000-0  91010-5 0  9996
2 42847  97.5944 103.4964 0010917  84.8446 275.4019 14.91932657 55379
SILU-1 (SILKROAD 1)     
1 42903U 17021F   18202.27065655  .00021374  00000-0  15323-3 0  9992
2 42903  42.7775 121.5249 0012728 189.3248 308.1989 15.73137484 55293
MIRATA                  
1 43015U 17073C   18202.47715150  .00000605  00000-0  52953-4 0  9993
2 43015  97.7042 132.0588 0258333 159.5701 201.6077 14.78188463 36207
MAKERSAT 0              
1 43016U 17073D   18201.78494863  .00000357  00000-0  33316-4 0  9998
2 43016  97.7068 131.5246 0259739 161.8913 199.1767 14.78184690 36095
ASTERIA                 
1 43020U 98067NH  18202.48781816  .00005021  00000-0  67233-4 0  9998
2 43020  51.6404 201.9421 0002101 319.7899  40.2938 15.59962481 37848
DELLINGR (RBLE)         
1 43021U 98067NJ  18202.51602392  .00005136  00000-0  73896-4 0  9993
2 43021  51.6385 203.5980 0001865 308.6693  51.4133 15.57946270 37825
OSIRIS-3U               
1 43027U 98067NL  18202.49953828  .00026319  00000-0  25579-3 0  9999
2 43027  51.6358 196.7138 0002500 321.3516  38.7300 15.66110376 37792
AEROCUBE 7B             
1 43042U 17071F   18201.56252641  .00002046  00000-0  62233-4 0  9994
2 43042  51.6379 238.9002 0005418  29.5021 330.6268 15.39047597 34743
AEROCUBE 7C             
1 43043U 17071G   18201.56246321  .00001961  00000-0  60074-4 0  9999
2 43043  51.6382 238.9047 0005513  31.6030 328.5285 15.39044143 34713
CHEFSAT                 
1 43044U 17071H   18201.74532912  .00002842  00000-0  79866-4 0  9992
2 43044  51.6389 237.1511 0005459  29.9842 330.1454 15.40065580 34759
ASGARDIA 1              
1 43049U 17071N   18202.12472442  .00001837  00000-0  56666-4 0  9997
2 43049  51.6386 235.9162 0003050  53.0761 307.0503 15.39175697 34793
ISARA                   
1 43050U 17071P   18202.46474531  .00002960  00000-0  83218-4 0  9998
2 43050  51.6383 233.6993 0002948  48.7275 311.3963 15.39884203 34850
FAUNA                   
1 43052U 17071R   18202.49971498  .00002352  00000-0  69394-4 0  9991
2 43052  51.6386 233.9292 0002955  51.2693 308.8556 15.39319848 34858
CORVUS BC3              
1 43118U 18004H   18201.40285876  .00000633  00000-0  30596-4 0  9991
2 43118  97.5308 264.0554 0010124 348.0320  12.0674 15.22301711 28761
MICROMAS-2A             
1 43131U 18004W   18201.81019923  .00001511  00000-0  67472-4 0  9998
2 43131  97.5317 264.6024 0009276 350.5901   9.5160 15.22917060 28832
GOMX4-B                 
1 43196U 18015E   18202.42587967  .00000477  00000-0  22733-4 0  9998
2 43196  97.3498 330.6575 0020266  39.6243 320.6474 15.23679839 25744
GOMX4-A                 
1 43197U 18015F   18202.37189178  .00000385  00000-0  18901-4 0  9995
2 43197  97.3515 330.6110 0020583  41.3516  43.0247 15.23693032 25740
UBAKUSAT                
1 43466U 98067NP  18202.40536311  .00009239  00000-0  13560-3 0  9990
2 43466  51.6383 207.3534 0000595  34.3840 325.7189 15.56287135 11028
1KUNS-PF                
1 43467U 98067NQ  18202.47295923  .00006527  00000-0  98686-4 0  9999
2 43467  51.6387 207.0567 0001934 267.8274  92.2496 15.56052596 11048
BATSU-CS1 (IRAZU)       
1 43468U 98067NR  18202.20619726  .00010672  00000-0  15414-3 0  9995
2 43468  51.6383 208.2732 0000687  42.2074 317.8971 15.56535975110983
